NORAD_CAT_ID,OBJECT_NAME,OBJECT_TYPE,EPOCH,MEAN_MOTION,ECCENTRICITY,INCLINATION,RA_OF_ASC_NODE,ARG_OF_PERICENTER,MEAN_ANOMALY,BSTAR,MEAN_MOTION_DOT,MEAN_MOTION_DDOT,TLE_LINE0,TLE_LINE1,TLE_LINE2,SEMIMAJOR_AXIS,PERIOD,APOGEE,PERIGEE,DECAYED
55948.0,STARLINK-5900,PAYLOAD,2023-12-06 23:02:46,14.98333574,0.0002582,69.9982,181.485,272.3166,87.7697,-4.4929e-05,-6.29e-06,0.0,0 STARLINK-5900,1 55948U 23037AL  23340.96026309 -.00000629  00000-0 -44929-4 0  9994,2 55948  69.9982 181.4850 0002582 272.3166  87.7697 14.98333574 41081,6950.182,96.107,573.841,570.252,0.0
55948.0,STARLINK-5900,PAYLOAD,2023-12-08 13:30:00,14.98328244,0.0002568,69.9983,177.4458,272.2816,87.8049,1.2522e-05,5.6e-07,0.0,0 STARLINK-5900,1 55948U 23037AL  23342.56250218  .00000056  00000-0  12522-4 0  9996,2 55948  69.9983 177.4458 0002568 272.2816  87.8049 14.98328244 41323,6950.198,96.107,573.848,570.279,0.0
55948.0,STARLINK-5900,PAYLOAD,2023-12-08 23:06:49,14.98322319,0.0002579,69.9984,176.436,271.8741,88.2123,-6.2555e-05,-8.39e-06,0.0,0 STARLINK-5900,1 55948U 23037AL  23342.96306881 -.00000839  00000-0 -62555-4 0  9990,2 55948  69.9984 176.4360 0002579 271.8741  88.2123 14.98322319 41728,6950.217,96.107,573.874,570.289,0.0
55948.0,STARLINK-5900,PAYLOAD,2023-12-09 13:32:01,14.9832252,0.0002617,69.9982,174.9209,271.5024,88.5835,-7.2322e-05,-9.56e-06,0.0,0 STARLINK-5900,1 55948U 23037AL  23343.56391181 -.00000956  00000-0 -72322-4 0  9997,2 55948  69.9982 174.9209 0002617 271.5024  88.5835 14.98322520 41474,6950.216,96.107,573.9,570.262,0.0
55948.0,STARLINK-5900,PAYLOAD,2023-12-09 23:08:50,14.98318142,0.0002498,69.9992,173.9115,277.926,82.1616,3.1624e-05,2.84e-06,0.0,0 STARLINK-5900,1 55948U 23037AL  23343.96447199  .00000284  00000-0  31624-4 0  9994,2 55948  69.9992 173.9115 0002498 277.9260  82.1616 14.98318142 41875,6950.23,96.108,573.831,570.358,0.0
55948.0,STARLINK-5900,PAYLOAD,2023-12-10 13:34:03,14.98319978,0.0002519,69.9986,172.3966,276.7155,83.3717,4.0996e-05,3.96e-06,0.0,0 STARLINK-5900,1 55948U 23037AL  23344.56531473  .00000396  00000-0  40996-4 0  9996,2 55948  69.9986 172.3966 0002519 276.7155  83.3717 14.98319978 41625,6950.224,96.108,573.84,570.338,0.0
55948.0,STARLINK-5900,PAYLOAD,2023-12-10 21:34:43,14.98320999,0.0002496,69.9986,171.5549,276.1813,83.9061,4.8431e-05,4.85e-06,0.0,0 STARLINK-5900,1 55948U 23037AL  23344.89911582  .00000485  00000-0  48431-4 0  9996,2 55948  69.9986 171.5549 0002496 276.1813  83.9061 14.98320999 41670,6950.221,96.108,573.821,570.351,0.0
55948.0,STARLINK-5900,PAYLOAD,2023-12-10 23:10:51,14.98321389,0.0002496,69.9987,171.3866,276.2745,83.8129,5.1334e-05,5.19e-06,0.0,0 STARLINK-5900,1 55948U 23037AL  23344.96587587  .00000519  00000-0  51334-4 0  9992,2 55948  69.9987 171.3866 0002496 276.2745  83.8129 14.98321389 42024,6950.22,96.108,573.819,570.35,0.0
55948.0,STARLINK-5900,PAYLOAD,2023-12-11 13:36:04,14.98323476,0.0002493,69.9986,169.8717,274.6581,85.4293,3.5893e-05,3.35e-06,0.0,0 STARLINK-5900,1 55948U 23037AL  23345.56671770  .00000335  00000-0  35893-4 0  9995,2 55948  69.9986 169.8717 0002493 274.6581  85.4293 14.98323476 41777,6950.213,96.107,573.811,570.345,0.0
55948.0,STARLINK-5900,PAYLOAD,2023-12-11 21:36:44,14.98324708,0.0002472,69.9986,169.03,274.7661,85.3215,4.6582e-05,4.63e-06,0.0,0 STARLINK-5900,1 55948U 23037AL  23345.90051775  .00000463  00000-0  46582-4 0  9999,2 55948  69.9986 169.0300 0002472 274.7661  85.3215 14.98324708 41822,6950.209,96.107,573.792,570.356,0.0
55948.0,STARLINK-5900,PAYLOAD,2023-12-12 13:38:05,14.98327914,0.0002486,69.9986,167.3468,273.8045,86.2829,3.2309e-05,2.93e-06,0.0,0 STARLINK-5900,1 55948U 23037AL  23346.56811741  .00000293  00000-0  32309-4 0  9992,2 55948  69.9986 167.3468 0002486 273.8045  86.2829 14.98327914 41923,6950.199,96.107,573.792,570.337,0.0
55948.0,STARLINK-5900,PAYLOAD,2023-12-12 20:02:38,14.98321033,0.0002647,69.9984,166.6736,275.7645,84.3213,-5.2158e-05,-7.15e-06,0.0,0 STARLINK-5900,1 55948U 23037AL  23346.83516485 -.00000715  00000-0 -52158-4 0  9994,2 55948  69.9984 166.6736 0002647 275.7645  84.3213 14.98321033 42302,6950.221,96.108,573.925,570.246,0.0
55948.0,STARLINK-5900,PAYLOAD,2023-12-12 21:38:46,14.9832028,0.0002657,69.9984,166.5051,276.1121,83.9735,-6.0712e-05,-8.17e-06,0.0,0 STARLINK-5900,1 55948U 23037AL  23346.90192592 -.00000817  00000-0 -60712-4 0  9999,2 55948  69.9984 166.5051 0002657 276.1121  83.9735 14.98320280 41975,6950.223,96.108,573.935,570.241,0.0
55948.0,STARLINK-5900,PAYLOAD,2023-12-13 13:40:06,14.98329015,0.0003249,69.9973,164.8205,287.7882,72.2922,-2.3763e-05,-3.77e-06,0.0,0 STARLINK-5900,1 55948U 23037AL  23347.56952180 -.00000377  00000-0 -23763-4 0  9995,2 55948  69.9973 164.8205 0003249 287.7882  72.2922 14.98329015 42071,6950.196,96.107,574.319,569.803,0.0
55948.0,STARLINK-5900,PAYLOAD,2023-12-13 20:04:38,14.98335478,0.0003041,69.9975,164.1478,284.2955,75.7866,3.8972e-05,3.72e-06,0.0,0 STARLINK-5900,1 55948U 23037AL  23347.83655558  .00000372  00000-0  38972-4 0  9995,2 55948  69.9975 164.1478 0003041 284.2955  75.7866 14.98335478 42458,6950.176,96.107,574.154,569.927,0.0
55948.0,STARLINK-5900,PAYLOAD,2023-12-13 21:40:46,14.98335281,0.0002954,69.9977,163.9795,282.8624,77.2205,5.3461e-05,5.45e-06,0.0,0 STARLINK-5900,1 55948U 23037AL  23347.90331504  .00000545  00000-0  53461-4 0  9997,2 55948  69.9977 163.9795 0002954 282.8624  77.2205 14.98335281 42128,6950.177,96.107,574.095,569.988,0.0
55948.0,STARLINK-5900,PAYLOAD,2023-12-14 13:42:07,14.98329447,0.0002744,69.9981,162.2965,281.4174,78.6676,0.00012524,1.402e-05,0.0,0 STARLINK-5900,1 55948U 23037AL  23348.57091493  .00001402  00000-0  12524-3 0  9998,2 55948  69.9981 162.2965 0002744 281.4174  78.6676 14.98329447 42221,6950.195,96.107,573.967,570.152,0.0
55948.0,STARLINK-5900,PAYLOAD,2023-12-14 20:06:39,14.98332863,0.000261,69.9983,161.6235,278.647,81.4393,0.00015811,1.794e-05,0.0,0 STARLINK-5900,1 55948U 23037AL  23348.83795144  .00001794  00000-0  15811-3 0  9997,2 55948  69.9983 161.6235 0002610 278.6470  81.4393 14.98332863 42601,6950.184,96.107,573.863,570.235,0.0
55948.0,STARLINK-5900,PAYLOAD,2023-12-14 21:42:47,14.98333083,0.0002638,69.9982,161.455,279.6049,80.4812,0.00015635,1.773e-05,0.0,0 STARLINK-5900,1 55948U 23037AL  23348.90471121  .00001773  00000-0  15635-3 0  9992,2 55948  69.9982 161.4550 0002638 279.6049  80.4812 14.98333083 42274,6950.183,96.107,573.882,570.215,0.0
55948.0,STARLINK-5900,PAYLOAD,2023-12-15 13:44:07,14.98342051,0.00026,69.9983,159.7713,282.1083,77.9784,6.7531e-05,7.13e-06,0.0,0 STARLINK-5900,1 55948U 23037AL  23349.57230477  .00000713  00000-0  67531-4 0  9999,2 55948  69.9983 159.7713 0002600 282.1083  77.9784 14.98342051 42377,6950.156,96.106,573.828,570.214,0.0
55948.0,STARLINK-5900,PAYLOAD,2023-12-15 20:08:39,14.98343599,0.0002572,69.9984,159.0984,281.5486,78.5384,8.0638e-05,8.7e-06,0.0,0 STARLINK-5900,1 55948U 23037AL  23349.83934112  .00000870  00000-0  80638-4 0  9992,2 55948  69.9984 159.0984 0002572 281.5486  78.5384 14.98343599 42752,6950.151,96.106,573.803,570.228,0.0
55948.0,STARLINK-5900,PAYLOAD,2023-12-15 21:44:47,14.98343824,0.0002575,69.9984,158.9301,281.6539,78.4331,8.1227e-05,8.77e-06,0.0,0 STARLINK-5900,1 55948U 23037AL  23349.90610034  .00000877  00000-0  81227-4 0  9996,2 55948  69.9984 158.9301 0002575 281.6539  78.4331 14.98343824 42422,6950.15,96.106,573.805,570.225,0.0
55948.0,STARLINK-5900,PAYLOAD,2023-12-16 13:46:07,14.98339546,0.000243,69.9987,157.2474,278.4493,81.6391,-1.9659e-05,-3.28e-06,0.0,0 STARLINK-5900,1 55948U 23037AL  23350.57370048 -.00000328  00000-0 -19659-4 0  9992,2 55948  69.9987 157.2474 0002430 278.4493  81.6391 14.98339546 42520,6950.163,96.106,573.717,570.339,0.0
55948.0,STARLINK-5900,PAYLOAD,2023-12-16 20:10:39,14.98338071,0.000246,69.9987,156.574,279.0508,81.0373,-3.502e-05,-5.11e-06,0.0,0 STARLINK-5900,1 55948U 23037AL  23350.84074004 -.00000511  00000-0 -35020-4 0  9999,2 55948  69.9987 156.5740 0002460 279.0508  81.0373 14.98338071 42903,6950.168,96.106,573.743,570.323,0.0
55948.0,STARLINK-5900,PAYLOAD,2023-12-16 21:46:47,14.98338411,0.0002457,69.9987,156.4058,278.7399,81.3482,-3.1628e-05,-4.7e-06,0.0,0 STARLINK-5900,1 55948U 23037AL  23350.90749927 -.00000470  00000-0 -31628-4 0  9993,2 55948  69.9987 156.4058 0002457 278.7399  81.3482 14.98338411 42579,6950.167,96.106,573.74,570.324,0.0
55948.0,STARLINK-5900,PAYLOAD,2023-12-17 13:48:08,14.98338381,0.0002369,69.999,154.7231,273.7029,86.3859,-9.8788e-05,-1.272e-05,0.0,0 STARLINK-5900,1 55948U 23037AL  23351.57509701 -.00001272  00000-0 -98788-4 0  9992,2 55948  69.9990 154.7231 0002369 273.7029  86.3859 14.98338381 42674,6950.167,96.106,573.678,570.385,0.0
55948.0,STARLINK-5900,PAYLOAD,2023-12-17 20:12:40,14.98336268,0.0002348,69.9988,154.0494,271.4315,88.6575,-8.8652e-05,-1.151e-05,0.0,0 STARLINK-5900,1 55948U 23037AL  23351.84213656 -.00001151  00000-0 -88652-4 0  9998,2 55948  69.9988 154.0494 0002348 271.4315  88.6575 14.98336268 43050,6950.174,96.107,573.67,570.407,0.0
55948.0,STARLINK-5900,PAYLOAD,2023-12-18 13:50:08,14.98333499,0.0002444,69.9988,152.1976,272.0474,88.0406,-5.7791e-07,-1e-06,0.0,0 STARLINK-5900,1 55948U 23037AL  23352.57649277 -.00000100  00000-0 -57791-6 0  9996,2 55948  69.9988 152.1976 0002444 272.0474  88.0406 14.98333499 42828,6950.182,96.107,573.746,570.348,0.0
55948.0,STARLINK-5900,PAYLOAD,2023-12-18 20:14:41,14.98333082,0.0002441,69.999,151.5248,272.3702,87.7178,-6.7827e-06,-1.74e-06,0.0,0 STARLINK-5900,1 55948U 23037AL  23352.84353267 -.00000174  00000-0 -67827-5 0  9998,2 55948  69.9990 151.5248 0002441 272.3702  87.7178 14.98333082 42864,6950.183,96.107,573.745,570.352,0.0
55948.0,STARLINK-5900,PAYLOAD,2023-12-19 13:52:09,14.98331851,0.000252,69.999,149.6729,272.3684,87.7186,3.9945e-06,-4.5e-07,0.0,0 STARLINK-5900,1 55948U 23037AL  23353.57789146 -.00000045  00000-0  39945-5 0  9994,2 55948  69.9990 149.6729 0002520 272.3684  87.7186 14.98331851 42976,6950.187,96.107,573.804,570.301,0.0
